<?xml version="1.0" encoding="utf-8" ?>
<kml xmlns="http://www.opengis.net/kml/2.2">
<Document id="root_doc">
<Schema name="qt_sr_graca" id="qt_sr_graca">
	<SimpleField name="id" type="float"></SimpleField>
	<SimpleField name="NOME" type="string"></SimpleField>
	<SimpleField name="AREA_M2" type="float"></SimpleField>
</Schema>
<Folder><name>qt_sr_graca</name>
  <Placemark id="qt_sr_graca.1">
	<Style><LineStyle><color>ff0000ff</color></LineStyle><PolyStyle><fill>0</fill></PolyStyle></Style>
	<ExtendedData><SchemaData schemaUrl="#qt_sr_graca">
		<SimpleData name="id">1</SimpleData>
		<SimpleData name="NOME">Limite da Qt.ª de N. S. da Graça</SimpleData>
		<SimpleData name="AREA_M2">429690.520</SimpleData>
	</SchemaData></ExtendedData>
      <MultiGeometry><Polygon><outerBoundaryIs><LinearRing><coordinates>-7.76706997473949,41.1825030114751 -7.76679126088842,41.1823269147682 -7.76667821336793,41.1822458060992 -7.76667102591247,41.1821591729373 -7.76638200414699,41.1820628628611 -7.76611073062901,41.1819600840596 -7.76594544228499,41.1818451240764 -7.76579702691535,41.1817702937005 -7.76563023947616,41.1817352152185 -7.76545501613128,41.1816800715551 -7.76527891776566,41.1816715254215 -7.76512099883745,41.1821026130491 -7.76494670603816,41.1824669431448 -7.76478472540862,41.1826449763379 -7.76467448581439,41.1828834878413 -7.76461798940383,41.1830759686129 -7.76448381695558,41.1831810598408 -7.76424490875084,41.1832317617177 -7.7638657692749,41.1832410089155 -7.76363667354082,41.1832385495282 -7.76353599154551,41.1834372135183 -7.76353348693411,41.1835703499391 -7.76357554039465,41.1836773321122 -7.76358284910838,41.183757308569 -7.76332731727329,41.1837545647212 -7.76301023067399,41.1837445009574 -7.76281637901348,41.1837424185064 -7.76249916724924,41.1837390101557 -7.76224413703891,41.1837096366345 -7.76208553126337,41.1837079317814 -7.76185643405609,41.1837054688303 -7.76175925750058,41.183717740308 -7.76152122342125,41.1837218387603 -7.7613809932188,41.1836803815684 -7.76116497360809,41.1834516802984 -7.76099238487163,41.1832567367325 -7.76089884822867,41.1830759598602 -7.76096517070787,41.1828303213491 -7.76097950340163,41.1825375162685 -7.76096564544614,41.1823376221878 -7.76091654269088,41.1821373488787 -7.76091892698708,41.1820108693726 -7.76085144927859,41.1818503473148 -7.76073022640486,41.1817358540225 -7.76053020573633,41.1815938798538 -7.76014578017494,41.1814166292694 -7.75969426863454,41.1812919202185 -7.75927384893474,41.1811542280534 -7.75893386173851,41.1809574776974 -7.75858443696428,41.1807939154363 -7.75821676315079,41.1806634461705 -7.75790183098407,41.1805402027762 -7.7576575136314,41.1804110621681 -7.75739620452128,41.1802484468621 -7.75723974689639,41.1801335696968 -7.75705043769807,41.1798918325681 -7.75708253444993,41.1795925614484 -7.75727171554733,41.1793748835705 -7.75745888215358,41.1792637143274 -7.75770797537699,41.179139896488 -7.75801005817438,41.1790099914324 -7.75827689670352,41.1788797055602 -7.75857117214658,41.1786964494815 -7.75873190244545,41.1785849931568 -7.75890345375466,41.1783671225078 -7.75910899006995,41.1782161994945 -7.75927059775022,41.1780581446643 -7.75937883827732,41.177926147375 -7.75951413831917,41.1777611506075 -7.75979959470381,41.1775777963293 -7.75999480915758,41.1775066585939 -7.76019983811114,41.1773823608161 -7.76059202160968,41.1771468881239 -7.76100081967958,41.176964858207 -7.76137261762431,41.1768756432872 -7.76173435025014,41.1768529006605 -7.76202584928376,41.1768160855707 -7.762466374724,41.1768208203176 -7.76282710457202,41.1768513288611 -7.76303742968215,41.1769135117277 -7.76399374726773,41.1769038051248 -7.76452250400818,41.1769028207657 -7.76488511139031,41.1768334704057 -7.76512437087668,41.176762796313 -7.7654647306855,41.1769395579862 -7.76516910660508,41.1771960572756 -7.76531626081137,41.1773374566909 -7.76540236646751,41.1774449105929 -7.76546004039565,41.1776585904081 -7.76558088929185,41.1777930493089 -7.76563287824411,41.1778402137772 -7.76584208452441,41.1779623030898 -7.76596181010511,41.1781566731019 -7.76613552524549,41.1782916979052 -7.76633329973731,41.1785534854555 -7.7670535344307,41.1786810458434 -7.76692273007929,41.179130103297 -7.76686064766776,41.1792613554515 -7.7669234276806,41.1793199424247 -7.76703609410152,41.1794434131946 -7.76717922891664,41.1795318176871 -7.7673171411832,41.1796716458684 -7.7674620911286,41.1798039920875 -7.7677992285702,41.1801538247975 -7.76770874775664,41.1802793618712 -7.76764482441605,41.1803985249004 -7.76744067341964,41.1804762380961 -7.76756215550749,41.1805774108107 -7.76731282513699,41.1807145637887 -7.76717891153366,41.1808063446605 -7.76710542648204,41.1809653540315 -7.76719772896637,41.1812126944538 -7.76720354370002,41.1813725527654 -7.76717361441082,41.1815586611008 -7.76711512875664,41.1818576525727 -7.76714487980065,41.182150930496 -7.7671587565434,41.1823508241027 -7.76706997473949,41.1825030114751</coordinates></LinearRing></outerBoundaryIs></Polygon></MultiGeometry>
  </Placemark>
</Folder>
</Document></kml>
